LEMUR-2-FINNIAN         
1 66782U 25276DX  26182.95187135  .00003301  00000+0  26644-3 0  9990
2 66782  97.5330 253.4795 0008478  45.8769 314.3151 15.00493510 22212
LEMUR-2-STARLIGHT       
1 66783U 25276DY  26183.18823247  .00006929  00000+0  57190-3 0  9997
2 66783  97.5232 253.3140 0014654  84.8862 275.4034 14.99213627 32446
LEMUR-2-TARTIFLETTE     
1 66784U 25276DZ  26183.18655596  .00006785  00000+0  56020-3 0  9999
2 66784  97.5235 253.3204 0013638  92.4269 267.8516 14.99217224 32445
LEMUR-2-VUKASIN         
1 66785U 25276EA  26183.16743319  .00001857  00000+0  15220-3 0  9991
2 66785  97.5271 253.6348 0004953  89.5693 270.6099 15.00442804 32395
LEMUR-2-HOTSPUR-TOM     
1 66786U 25276EB  26183.18013591  .00007162  00000+0  59249-3 0  9990
2 66786  97.5228 253.2922 0014261  84.1317 276.1532 14.99119614 32377
LEMUR-2-MYRA            
1 66787U 25276EC  26183.13293004  .00009108  00000+0  72537-3 0  9992
2 66787  97.5213 253.5248 0018176  93.9430 266.3872 15.00453976 32451
LEMUR-2 FIKRETDENGIZ    
1 67363U 26004A   26183.26078518  .00004927  00000+0  53637-3 0  9992
2 67363  97.8013 181.5875 0010565  91.3877 268.8550 14.88435160 25520
TWILIGHT-1 OBJECT B     
1 67364U 26004B   26182.95552111  .00002058  00000+0  23143-3 0  9996
2 67364  97.8064 181.2954 0010241  83.1024 277.1357 14.87754645 25480
LEMUR-2-MARIO-SOUSA     
1 67365U 26004C   26183.30965270  .00004896  00000+0  53039-3 0  9990
2 67365  97.7990 181.6315 0010193  92.2999 267.9385 14.88637260 25540
LEMUR-2-SONNENBLUME     
1 67367U 26004E   26183.24302866  .00003195  00000+0  35030-3 0  9993
2 67367  97.7986 181.5445 0009724  93.6488 266.5841 14.88396331 25538
LEMUR-2-WOBLER          
1 67368U 26004F   26183.23437220  .00004323  00000+0  46922-3 0  9992
2 67368  97.8040 181.6734 0010010  85.4516 274.7844 14.88621969 25536
LEMUR-2-GRAM-E-SUE      
1 67370U 26004H   26182.95676906  .00002949  00000+0  32271-3 0  9993
2 67370  97.7971 181.2787 0008857  96.3817 263.8409 14.88538003 25493
LEMUR-2-KATIE           
1 67387U 26004AA  26183.26403708  .00005714  00000+0  59581-3 0  9990
2 67387  97.8034 182.0894 0004409  62.1255 298.0409 14.90148991 25559
LEMUR-2-HCS-BAZUS       
1 67388U 26004AB  26183.26263612  .00004458  00000+0  46550-3 0  9995
2 67388  97.8023 182.0679 0003843  60.9251 299.2351 14.90207360 25557
