OBJECT_NAME,OBJECT_ID,EPOCH,MEAN_MOTION,ECCENTRICITY,INCLINATION,RA_OF_ASC_NODE,ARG_OF_PERICENTER,MEAN_ANOMALY,EPHEMERIS_TYPE,CLASSIFICATION_TYPE,NORAD_CAT_ID,ELEMENT_SET_NO,REV_AT_EPOCH,BSTAR,MEAN_MOTION_DOT,MEAN_MOTION_DDOT
LEMUR-2-FINNIAN,2025-276DX,2026-07-01T22:50:41.684640,15.00493510,.0008478,97.5330,253.4795,45.8769,314.3151,0,U,66782,999,2221,.26643607E-3,.3301E-4,0
LEMUR-2-STARLIGHT,2025-276DY,2026-07-02T04:31:03.285408,14.99213627,.00146542,97.5232,253.3140,84.8862,275.4034,0,U,66783,999,3244,.57190323E-3,.6929E-4,0
LEMUR-2-TARTIFLETTE,2025-276DZ,2026-07-02T04:28:38.434944,14.99217224,.00136385,97.5235,253.3204,92.4269,267.8516,0,U,66784,999,3244,.56020434E-3,.6785E-4,0
LEMUR-2-VUKASIN,2025-276EA,2026-07-02T04:01:06.227616,15.00442804,.00049534,97.5271,253.6348,89.5693,270.6099,0,U,66785,999,3239,.15220199E-3,.1857E-4,0
LEMUR-2-HOTSPUR-TOM,2025-276EB,2026-07-02T04:19:23.742624,14.99119614,.00142617,97.5228,253.2922,84.1317,276.1532,0,U,66786,999,3237,.59248669E-3,.7162E-4,0
LEMUR-2-MYRA,2025-276EC,2026-07-02T03:11:25.155456,15.00453976,.00181763,97.5213,253.5248,93.9430,266.3872,0,U,66787,999,3245,.72537088E-3,.9108E-4,0
LEMUR-2 FIKRETDENGIZ,2026-004A,2026-07-02T06:15:31.839552,14.88435160,.00105656,97.8013,181.5875,91.3877,268.8550,0,U,67363,999,2552,.53637102E-3,.4927E-4,0
TWILIGHT-1 OBJECT B,2026-004B,2026-07-01T22:55:57.023904,14.87754645,.00102413,97.8064,181.2954,83.1024,277.1357,0,U,67364,999,2548,.23142862E-3,.2058E-4,0
LEMUR-2-MARIO-SOUSA,2026-004C,2026-07-02T07:25:53.993280,14.88637260,.00101938,97.7990,181.6315,92.2999,267.9385,0,U,67365,999,2554,.53039441E-3,.4896E-4,0
LEMUR-2-SONNENBLUME,2026-004E,2026-07-02T05:49:57.676224,14.88396331,.00097244,97.7986,181.5445,93.6488,266.5841,0,U,67367,999,2553,.35029963E-3,.3195E-4,0
LEMUR-2-WOBLER,2026-004F,2026-07-02T05:37:29.758080,14.88621969,.00100103,97.8040,181.6734,85.4516,274.7844,0,U,67368,999,2553,.46921612E-3,.4323E-4,0
LEMUR-2-GRAM-E-SUE,2026-004H,2026-07-01T22:57:44.846784,14.88538003,.00088572,97.7971,181.2787,96.3817,263.8409,0,U,67370,999,2549,.32270566E-3,.2949E-4,0
LEMUR-2-KATIE,2026-004AA,2026-07-02T06:20:12.803712,14.90148991,.00044095,97.8034,182.0894,62.1255,298.0409,0,U,67387,999,2555,.59580712E-3,.5714E-4,0
LEMUR-2-HCS-BAZUS,2026-004AB,2026-07-02T06:18:11.760768,14.90207360,.00038439,97.8023,182.0679,60.9251,299.2351,0,U,67388,999,2555,.46549985E-3,.4458E-4,0
